[
    {
        "Altitude(m)": 604221.2131069137,
        "Argument of Periapsis(deg)": 0.0,
        "Eccentricity": 0.0,
        "Inclination(deg)": 60.0,
        "Latitude(deg)": 14.11729592191825,
        "Longitude(deg)": 178.33417499100537,
        "Mean Anomaly(deg)": 16.363599999999984,
        "RAAN(deg)": 270.0,
        "Satellite Name": "Test1 1189",
        "Satellite Number": 1189,
        "Semi-Major Axis(m)": 6980739.136638005,
        "Time(s)": 0
    },
    {
        "Altitude(m)": 604235.3542453746,
        "Argument of Periapsis(deg)": 0.00010418945913296404,
        "Eccentricity": 0.0,
        "Inclination(deg)": 60.0,
        "Latitude(deg)": 14.651692253291232,
        "Longitude(deg)": 178.62262283763192,
        "Mean Anomaly(deg)": 16.983706145461838,
        "RAAN(deg)": 269.99957995086027,
        "Satellite Name": "Test1 1189",
        "Satellite Number": 1189,
        "Semi-Major Axis(m)": 6980739.136638005,
        "Time(s)": 10
    }
]